INTELSAT 26 (IS-26)     
1 24732U 97007A   20115.84285550  .00000011  00000-0  00000+0 0  9998
2 24732   8.9673  43.2963 0007836   8.7390 168.3473  1.00273771 84777
GALAXY 25 (G-25)        
1 24812U 97026A   20116.55813521  .00000161  00000-0  00000-0 0  9999
2 24812   1.8002  90.8160 0002714 307.4419  49.5470  1.00272390 83875
INTELSAT 5 (IS-5)       
1 24916U 97046A   20116.57663411  .00000097  00000-0  00000-0 0  9997
2 24916   5.6048  65.8470 0003593 352.6582 226.1262  1.00274153 83126
INTELSAT 805 (IS-805)   
1 25371U 98037A   20116.57144966  .00000102  00000-0  00000-0 0  9990
2 25371   2.3318  88.1315 0007902 100.6962  85.7764  0.99476289 80048
GALAXY 11 (G-11)        
1 26038U 99071A   20116.54563081 -.00000156  00000-0  00000-0 0  9990
2 26038   1.0795  97.0729 0000742 195.7205  24.5651  1.00272086 74582
INTELSAT 9 (IS-9)       
1 26451U 00043A   20116.34979953 -.00000279  00000-0  00000-0 0  9993
2 26451   5.5925  66.0476 0002457 324.0575 259.6637  1.00271648 21649
INTELSAT 12 (IS-12)     
1 26590U 00068A   20116.44815493  .00000019  00000-0  00000-0 0  9994
2 26590   2.8085  86.6263 0005252 336.4532  16.4066  1.00273147 29210
INTELSAT 1R (IS-1R)     
1 26608U 00072A   20116.61425965 -.00000132  00000-0  00000-0 0  9996
2 26608   2.6157  86.5098 0000136  14.9357 130.8575  1.00271450 18828
INTELSAT 10 (IS-10)     
1 26766U 01019A   20116.49910708  .00000131  00000-0  00000-0 0  9991
2 26766   3.7726  79.3016 0002141 330.3304  31.5056  1.00273662 23141
INTELSAT 901 (IS-901)   
1 26824U 01024A   20116.39221556 -.00000196  00000-0  00000+0 0  9998
2 26824   0.0644  60.8122 0001966  86.0883 180.6757  1.00273210 69085
INTELSAT 902 (IS-902)   
1 26900U 01039A   20116.45882875 -.00000276  00000-0  00000-0 0  9993
2 26900   0.4942  97.0894 0007479 248.1684 343.4119  1.00298015 68213
DIRECTV 4S              
1 26985U 01052A   20116.42549194 -.00000070  00000-0  00000-0 0  9994
2 26985   0.5792  95.1745 0005743 308.3617 336.5588  0.99266230 28794
INTELSAT 904 (IS-904)   
1 27380U 02007A   20116.42922472 -.00000207  00000-0  00000-0 0  9991
2 27380   1.3331  93.7577 0002601 300.7390 304.4276  1.00272779 29262
INTELSAT 903 (IS-903)   
1 27403U 02016A   20115.42285238 -.00000230  00000-0  00000+0 0  9993
2 27403   2.1151  88.7058 0003936 335.8886 263.0210  0.99065120 66138
DIRECTV 5 (TEMPO 1)     
1 27426U 02023A   20116.59556837 -.00000050  00000-0  00000-0 0  9992
2 27426   0.0150 260.0628 0003671 144.7461 273.5333  1.00269868 65835
INTELSAT 905 (IS-905)   
1 27438U 02027A   20116.35865087 -.00000178  00000-0  00000-0 0  9994
2 27438   1.1531  94.6774 0002583 299.8462 283.9197  1.00270695 28876
GALAXY 3C (G-3C)        
1 27445U 02030A   20116.38198501 -.00000144  00000-0  00000-0 0  9992
2 27445   0.0196 290.5740 0001957  23.4602 302.2809  1.00265768 24001
INTELSAT 906 (IS-906)   
1 27513U 02041A   20116.44806767  .00000020  00000-0  00000-0 0  9999
2 27513   0.1590 102.0682 0002242 302.0603  35.2268  1.00272507 64525
INTELSAT 907 (IS-907)   
1 27683U 03007A   20116.44771464 -.00000196  00000-0  00000-0 0  9990
2 27683   0.1031  89.2893 0002674 319.6360 298.6834  1.00272235 62931
GALAXY 12 (G-12)        
1 27715U 03013B   20116.58362862  .00000065  00000-0  00000-0 0  9990
2 27715   1.3696  92.9712 0001764 295.6960 266.4837  1.00272206 29641
GALAXY 23 (G-23)        
1 27854U 03034A   20116.58799946  .00000019  00000-0  00000-0 0  9993
2 27854   0.0260 262.8070 0003248 144.1148 257.8279  1.00274246 61240
GALAXY 13 (HORIZONS 1)  
1 27954U 03044A   20116.58460806  .00000054  00000-0  00000-0 0  9994
2 27954   0.0285 111.2824 0000459 337.7393 208.4535  1.00271345 24079
DIRECTV 7S              
1 28238U 04016A   20116.58979904  .00000007  00000-0  00000-0 0  9992
2 28238   0.0089 208.4596 0002994 190.0508 268.8112  1.00271664 58562
INTELSAT 10-02          
1 28358U 04022A   20116.57865984 -.00000005  00000-0  00000-0 0  9992
2 28358   0.0060 224.5663 0002781 190.1287   6.6876  1.00271901 58151
XM-3 (RHYTHM)           
1 28626U 05008A   20116.42003774 -.00000200  00000-0  00000-0 0  9997
2 28626   0.0049 354.2070 0000161 323.6173 322.1837  1.00272598 20139
SPACEWAY 1              
1 28644U 05015A   20116.57549293  .00000036  00000-0  00000-0 0  9998
2 28644   0.9879  93.9953 0002741 353.3766  32.5842  0.98488600 24085
DIRECTV 8               
1 28659U 05019A   20116.60143512 -.00000110  00000-0  00000-0 0  9990
2 28659   0.0140 258.6631 0002913 130.7113 300.4640  1.00271834 54641
GALAXY 28 (G-28)        
1 28702U 05022A   20116.56112542 -.00000179  00000-0  00000-0 0  9992
2 28702   0.0157 147.7076 0002526 243.6572 295.6501  1.00272220 29612
GALAXY 14 (G-14)        
1 28790U 05030A   20116.58630378  .00000042  00000-0  00000-0 0  9990
2 28790   0.0594  80.6825 0002375 312.7536 266.6905  1.00271958 53813
GALAXY 15 (G-15)        
1 28884U 05041A   20116.58061862  .00000085  00000-0  00000-0 0  9999
2 28884   0.0264 120.4139 0001770 272.0417 257.5975  1.00270850 53250
SPACEWAY 2              
1 28903U 05046B   20116.57598667  .00000110  00000-0  00000-0 0  9992
2 28903   0.0899  81.6189 0000238 214.0411 346.8463  1.00272600 28843
GALAXY 16 (G-16)        
1 29236U 06023A   20116.20212883 -.00000121  00000-0  00000+0 0  9993
2 29236   0.0133 259.0939 0003470 161.7686 126.5477  1.00266877 50764
DIRECTV 9S              
1 29494U 06043A   20116.63406973 -.00000107  00000-0  00000-0 0  9998
2 29494   0.0142 196.5838 0002812 195.0692 309.5105  1.00272253 28906
XM-4 (BLUES)            
1 29520U 06049A   20116.59246093 -.00000017  00000-0  00000-0 0  9994
2 29520   0.0133  17.2273 0000102 289.2742   5.5802  1.00272437 28978
GALAXY 17 (G-17)        
1 31307U 07016B   20116.56068924 -.00000169  00000-0  00000-0 0  9995
2 31307   0.0035 332.5453 0003427  74.3539 277.9978  1.00272123 47453
DIRECTV 10              
1 31862U 07032A   20116.51805449 -.00000098  00000-0  00000+0 0  9995
2 31862   0.0093  63.0180 0000256 167.9954  66.7407  1.00271810 46905
SPACEWAY 3              
1 32018U 07036A   20116.41640104 -.00000146  00000-0  00000-0 0  9992
2 32018   0.0014 350.5387 0000077  11.8745 266.4386  1.00270386 24077
INTELSAT 11 (IS-11)     
1 32253U 07044B   20116.42669487 -.00000263  00000-0  00000+0 0  9997
2 32253   0.0117 245.5082 0001768 176.9928 262.0205  1.00270578 46025
HORIZONS 2              
1 32388U 07063B   20116.56589660 -.00000177  00000-0  00000-0 0  9991
2 32388   0.0055 191.0556 0002795 199.5958 111.9614  1.00272608 45369
DIRECTV 11              
1 32729U 08013A   20116.52029984 -.00000120  00000-0  00000+0 0  9997
2 32729   0.0053  51.6596 0000040 317.2077 293.2524  1.00272566 44437
GALAXY 18 (G-18)        
1 32951U 08024A   20116.61966887  .00000031  00000-0  00000-0 0  9999
2 32951   0.0110 204.7603 0002991 197.3120 272.0887  1.00271551 23393
INTELSAT 25 (IS-25)     
1 33153U 08034A   20116.42905024 -.00000218  00000-0  00000+0 0  9997
2 33153   0.0144 179.6673 0002113 154.0168   3.1741  1.00271524 43147
GALAXY 19 (G-19)        
1 33376U 08045A   20116.63650058 -.00000133  00000-0  00000-0 0  9990
2 33376   0.0106 243.6035 0002913 154.2942 308.3452  1.00270046 42445
SIRIUS FM-5             
1 35493U 09034A   20116.56164883 -.00000195  00000-0  00000-0 0  9997
2 35493   0.0198 288.6866 0001033  83.9037 317.4939  1.00273338 24206
INTELSAT 14 (IS-14)     
1 36097U 09064A   20116.52341243 -.00000268  00000-0  00000-0 0  9995
2 36097   0.0149 211.5932 0002385 182.9470 322.9020  1.00272623 38207
INTELSAT 15 (IS-15)     
1 36106U 09067A   20116.56589698 -.00000180  00000-0  00000-0 0  9994
2 36106   0.0168 272.3075 0002210 132.9898  97.6249  1.00271421 18817
DIRECTV 12              
1 36131U 09075A   20116.31862552 -.00000097  00000-0  00000-0 0  9994
2 36131   0.0083 233.0304 0000066  27.5550 325.1286  1.00271920 24092
INTELSAT 16 (IS-16)     
1 36397U 10006A   20116.39195756 -.00000239  00000-0  00000-0 0  9995
2 36397   0.0186 266.7427 0001898 144.6731 227.3613  1.00272110 37368
XM-5                    
1 37185U 10053A   20116.42003862 -.00000199  00000-0  00000-0 0  9998
2 37185   0.0189 262.6027 0002062 135.5393 241.7533  1.00272547 35009
INTELSAT 17 (IS-17)     
1 37238U 10065B   20116.57549293  .00000004  00000-0  00000-0 0  9993
2 37238   0.0230 250.3238 0002552 145.6050  91.2743  1.00271441 30940
INTELSAT NEW DAWN       
1 37392U 11016A   20116.55813521  .00000161  00000-0  00000-0 0  9991
2 37392   0.0302 145.6949 0000605 225.5838  76.5061  1.00273918 30800
INTELSAT 18 (IS-18)     
1 37834U 11056A   20116.63234264  .00000058  00000-0  00000-0 0  9991
2 37834   0.0144 255.7422 0003079 158.1085 207.8861  1.00270770 31448
INTELSAT 22 (IS-22)     
1 38098U 12011A   20116.44972517 -.00000053  00000-0  00000-0 0  9991
2 38098   0.0066 257.5776 0002499 146.2957  44.0395  1.00271964 29320
INTELSAT 19 (IS-19)     
1 38356U 12030A   20116.61973479 -.00000051  00000-0  00000-0 0  9994
2 38356   0.0180 259.5258 0003142 146.2535 197.4112  1.00270119 27968
INTELSAT 20 (IS-20)     
1 38740U 12043A   20116.56993874 -.00000019  00000-0  00000-0 0  9994
2 38740   0.0219 151.5763 0001664  32.8035 303.3226  1.00270858 28259
INTELSAT 21 (IS-21)     
1 38749U 12045A   20116.40103976 -.00000279  00000-0  00000-0 0  9992
2 38749   0.0345 101.0782 0002042 291.7823 267.4005  1.00273328 28048
INTELSAT 23 (IS-23)     
1 38867U 12057A   20116.47542681 -.00000279  00000-0  00000+0 0  9992
2 38867   0.0028 223.1733 0001766 155.7017 313.2115  1.00275298 27606
SIRIUS FM-6             
1 39360U 13058A   20116.59148535 -.00000011  00000-0  00000-0 0  9991
2 39360   0.0236 278.1680 0000927 334.3714  58.3000  1.00271216 23662
INTELSAT 30 (IS-30)     
1 40271U 14062A   20116.38198470 -.00000145  00000-0  00000-0 0  9998
2 40271   0.0188 261.6563 0001283 187.9555 166.6996  1.00270761 20139
INTELSAT 34 (IS-34)     
1 40874U 15039A   20116.40768837 -.00000280  00000-0  00000+0 0  9994
2 40874   0.0181 261.8470 0000724   0.5490  42.7516  1.00269419 17177
INTELSAT 31 (IS-31)     
1 41581U 16035A   20116.38198448 -.00000145  00000-0  00000-0 0  9990
2 41581   0.0142 243.7133 0002698 328.0105  44.5922  1.00272163 14143
INTELSAT 36 (IS-36)     
1 41747U 16053A   20116.44894003 -.00000019  00000-0  00000-0 0  9991
2 41747   0.0126 315.2598 0001277  27.7961 100.9664  1.00270760 13469
INTELSAT 33E (IS-33E)   
1 41748U 16053B   20116.49355013  .00000054  00000-0  00000-0 0  9998
2 41748   0.0376   4.1772 0001818  57.5621  29.9038  1.00271529 13751
INTELSAT 32E (IS-32E)   
1 41945U 17007B   20116.52341243 -.00000263  00000-0  00000-0 0  9994
2 41945   0.0144 255.1269 0000472  43.2279  60.8834  1.00270023 11730
INTELSAT 35E (IS-35E)   
1 42818U 17041A   20116.51785549 -.00000232  00000-0  00000-0 0  9998
2 42818   0.0208 204.1502 0002214 194.9037 326.8642  1.00270913 10376
INTELSAT 37E (IS-37E)   
1 42950U 17059A   20116.44216024 -.00000135  00000-0  00000-0 0  9995
2 42950   0.0142 268.8620 0002335 129.3358 316.9042  1.00272065  9552
AZERSPACE 2 (IS-38)     
1 43632U 18074A   20116.26733578  .00000142  00000-0  00000-0 0  9996
2 43632   0.0156 250.1042 0001268 139.9892 325.0050  1.00270712  6005
HORIZONS 3E             
1 43633U 18074B   20116.62241809 -.00000025  00000-0  00000-0 0  9999
2 43633   0.0161  18.1166 0000366 265.6219 323.4228  1.00271192  5853
INTELSAT 39 (IS-39)     
1 44476U 19049B   20116.57549293  .00000039  00000-0  00000-0 0  9994
2 44476   0.0159 265.9175 0000420  12.3797 204.8713  1.00271487  2694
